<?xml version="1.0" encoding="UTF-8"?>
<kml xmlns="http://www.opengis.net/kml/2.2">
  <Document>
    <name>Pealkirjata kaart</name>
    <description/>
    <Style id="icon-1899-0288D1-nodesc-normal">
      <IconStyle>
        <color>ffd18802</color>
        <scale>1</scale>
        <Icon>
          <href>https://www.gstatic.com/mapspro/images/stock/503-wht-blank_maps.png</href>
        </Icon>
        <hotSpot x="32" xunits="pixels" y="64" yunits="insetPixels"/>
      </IconStyle>
      <LabelStyle>
        <scale>0</scale>
      </LabelStyle>
      <BalloonStyle>
        <text><![CDATA[<h3>$[name]</h3>]]></text>
      </BalloonStyle>
    </Style>
    <Style id="icon-1899-0288D1-nodesc-highlight">
      <IconStyle>
        <color>ffd18802</color>
        <scale>1</scale>
        <Icon>
          <href>https://www.gstatic.com/mapspro/images/stock/503-wht-blank_maps.png</href>
        </Icon>
        <hotSpot x="32" xunits="pixels" y="64" yunits="insetPixels"/>
      </IconStyle>
      <LabelStyle>
        <scale>1</scale>
      </LabelStyle>
      <BalloonStyle>
        <text><![CDATA[<h3>$[name]</h3>]]></text>
      </BalloonStyle>
    </Style>
    <StyleMap id="icon-1899-0288D1-nodesc">
      <Pair>
        <key>normal</key>
        <styleUrl>#icon-1899-0288D1-nodesc-normal</styleUrl>
      </Pair>
      <Pair>
        <key>highlight</key>
        <styleUrl>#icon-1899-0288D1-nodesc-highlight</styleUrl>
      </Pair>
    </StyleMap>
    <Style id="icon-1899-DB4436-nodesc-normal">
      <IconStyle>
        <color>ff3644db</color>
        <scale>1</scale>
        <Icon>
          <href>https://www.gstatic.com/mapspro/images/stock/503-wht-blank_maps.png</href>
        </Icon>
        <hotSpot x="32" xunits="pixels" y="64" yunits="insetPixels"/>
      </IconStyle>
      <LabelStyle>
        <scale>0</scale>
      </LabelStyle>
      <BalloonStyle>
        <text><![CDATA[<h3>$[name]</h3>]]></text>
      </BalloonStyle>
    </Style>
    <Style id="icon-1899-DB4436-nodesc-highlight">
      <IconStyle>
        <color>ff3644db</color>
        <scale>1</scale>
        <Icon>
          <href>https://www.gstatic.com/mapspro/images/stock/503-wht-blank_maps.png</href>
        </Icon>
        <hotSpot x="32" xunits="pixels" y="64" yunits="insetPixels"/>
      </IconStyle>
      <LabelStyle>
        <scale>1</scale>
      </LabelStyle>
      <BalloonStyle>
        <text><![CDATA[<h3>$[name]</h3>]]></text>
      </BalloonStyle>
    </Style>
    <StyleMap id="icon-1899-DB4436-nodesc">
      <Pair>
        <key>normal</key>
        <styleUrl>#icon-1899-DB4436-nodesc-normal</styleUrl>
      </Pair>
      <Pair>
        <key>highlight</key>
        <styleUrl>#icon-1899-DB4436-nodesc-highlight</styleUrl>
      </Pair>
    </StyleMap>
    <Style id="line-1267FF-5000-nodesc-normal">
      <LineStyle>
        <color>ffff6712</color>
        <width>5</width>
      </LineStyle>
      <BalloonStyle>
        <text><![CDATA[<h3>$[name]</h3>]]></text>
      </BalloonStyle>
    </Style>
    <Style id="line-1267FF-5000-nodesc-highlight">
      <LineStyle>
        <color>ffff6712</color>
        <width>7.5</width>
      </LineStyle>
      <BalloonStyle>
        <text><![CDATA[<h3>$[name]</h3>]]></text>
      </BalloonStyle>
    </Style>
    <StyleMap id="line-1267FF-5000-nodesc">
      <Pair>
        <key>normal</key>
        <styleUrl>#line-1267FF-5000-nodesc-normal</styleUrl>
      </Pair>
      <Pair>
        <key>highlight</key>
        <styleUrl>#line-1267FF-5000-nodesc-highlight</styleUrl>
      </Pair>
    </StyleMap>
    <Style id="poly-000000-1200-77-nodesc-normal">
      <LineStyle>
        <color>ff000000</color>
        <width>1.2</width>
      </LineStyle>
      <PolyStyle>
        <color>4d000000</color>
        <fill>1</fill>
        <outline>1</outline>
      </PolyStyle>
      <BalloonStyle>
        <text><![CDATA[<h3>$[name]</h3>]]></text>
      </BalloonStyle>
    </Style>
    <Style id="poly-000000-1200-77-nodesc-highlight">
      <LineStyle>
        <color>ff000000</color>
        <width>1.8</width>
      </LineStyle>
      <PolyStyle>
        <color>4d000000</color>
        <fill>1</fill>
        <outline>1</outline>
      </PolyStyle>
      <BalloonStyle>
        <text><![CDATA[<h3>$[name]</h3>]]></text>
      </BalloonStyle>
    </Style>
    <StyleMap id="poly-000000-1200-77-nodesc">
      <Pair>
        <key>normal</key>
        <styleUrl>#poly-000000-1200-77-nodesc-normal</styleUrl>
      </Pair>
      <Pair>
        <key>highlight</key>
        <styleUrl>#poly-000000-1200-77-nodesc-highlight</styleUrl>
      </Pair>
    </StyleMap>
    <Folder>
      <name>Kooli ja kodu kaart</name>
      <Placemark>
        <name>Techno</name>
        <styleUrl>#icon-1899-0288D1-nodesc</styleUrl>
        <Point>
          <coordinates>
            24.7049282,59.4116962,0
          </coordinates>
        </Point>
      </Placemark>
      <Placemark>
        <name>Kodu</name>
        <styleUrl>#icon-1899-0288D1-nodesc</styleUrl>
        <Point>
          <coordinates>
            24.8714496,59.4539841,0
          </coordinates>
        </Point>
      </Placemark>
      <Placemark>
        <name>Kodu</name>
        <styleUrl>#poly-000000-1200-77-nodesc</styleUrl>
        <Polygon>
          <outerBoundaryIs>
            <LinearRing>
              <tessellate>1</tessellate>
              <coordinates>
                24.8709105,59.4543345,0
                24.871404,59.4535765,0
                24.8722543,59.4537347,0
                24.8717017,59.454434,0
                24.8709105,59.4543345,0
              </coordinates>
            </LinearRing>
          </outerBoundaryIs>
        </Polygon>
      </Placemark>
    </Folder>
    <Folder>
      <name>Pealkirjata kiht</name>
    </Folder>
    <Folder>
      <name>Juhised lähtekohast Linnu tee, 13424 Tallinn, Eesti sihtkohta Kodu</name>
      <Placemark>
        <name>Juhised lähtekohast Linnu tee, 13424 Tallinn, Eesti sihtkohta Kodu</name>
        <styleUrl>#line-1267FF-5000-nodesc</styleUrl>
        <LineString>
          <tessellate>1</tessellate>
          <coordinates>
            24.7087,59.4146,0
            24.70861,59.41449,0
            24.70827,59.41401,0
            24.70798,59.4136,0
            24.70785,59.41342,0
            24.70751,59.41294,0
            24.70712,59.41247,0
            24.70696,59.41225,0
            24.70676,59.41198,0
            24.70618,59.41129,0
            24.70608,59.41117,0
            24.70608,59.41116,0
            24.70576,59.41078,0
            24.70556,59.41051,0
            24.7054,59.41031,0
            24.70533,59.41022,0
            24.70482,59.40959,0
            24.70473,59.40948,0
            24.70384,59.40843,0
            24.70352,59.40811,0
            24.703,59.40759,0
            24.70252,59.40699,0
            24.70228,59.40674,0
            24.70194,59.40636,0
            24.70162,59.40607,0
            24.70156,59.40599,0
            24.70128,59.40568,0
            24.70108,59.40548,0
            24.70089,59.40526,0
            24.70082,59.40517,0
            24.70066,59.40504,0
            24.7009,59.40498,0
            24.70107,59.40493,0
            24.70139,59.40484,0
            24.7043,59.404,0
            24.70544,59.40366,0
            24.70606,59.40349,0
            24.70632,59.40341,0
            24.70686,59.40327,0
            24.70701,59.40322,0
            24.7071,59.4032,0
            24.70723,59.40316,0
            24.70848,59.4028,0
            24.70872,59.40273,0
            24.70928,59.40259,0
            24.70966,59.40251,0
            24.70987,59.40246,0
            24.71009,59.40242,0
            24.71026,59.40238,0
            24.71045,59.40236,0
            24.71077,59.40233,0
            24.71096,59.40231,0
            24.71125,59.40229,0
            24.71161,59.40228,0
            24.7119,59.40227,0
            24.71245,59.40226,0
            24.7131,59.40225,0
            24.71346,59.40224,0
            24.71371,59.40224,0
            24.71382,59.40223,0
            24.71402,59.40223,0
            24.7143,59.40223,0
            24.71453,59.40222,0
            24.71484,59.40222,0
            24.71499,59.40222,0
            24.71528,59.40222,0
            24.71559,59.40223,0
            24.71595,59.40225,0
            24.71655,59.4023,0
            24.71672,59.40232,0
            24.71713,59.40236,0
            24.71753,59.40239,0
            24.71771,59.4024,0
            24.71784,59.40241,0
            24.71797,59.40242,0
            24.71812,59.40243,0
            24.71849,59.40243,0
            24.71871,59.40244,0
            24.71894,59.40244,0
            24.71928,59.40243,0
            24.71945,59.40243,0
            24.71971,59.40242,0
            24.72014,59.40239,0
            24.72054,59.40235,0
            24.72139,59.40229,0
            24.72146,59.40229,0
            24.72246,59.40225,0
            24.72321,59.40227,0
            24.72391,59.40231,0
            24.72426,59.40234,0
            24.72474,59.40239,0
            24.72497,59.40243,0
            24.72565,59.40251,0
            24.72712,59.40272,0
            24.72869,59.40293,0
            24.72929,59.40299,0
            24.72965,59.40303,0
            24.72978,59.40304,0
            24.7312,59.4032,0
            24.73139,59.40322,0
            24.73185,59.40328,0
            24.73227,59.40333,0
            24.73294,59.40342,0
            24.73354,59.40351,0
            24.73363,59.40352,0
            24.73463,59.4037,0
            24.7353,59.40394,0
            24.73593,59.40409,0
            24.73597,59.4041,0
            24.7361,59.40413,0
            24.73641,59.40419,0
            24.73645,59.4042,0
            24.7369,59.40435,0
            24.73731,59.40446,0
            24.73733,59.40447,0
            24.73752,59.40452,0
            24.73772,59.40457,0
            24.73794,59.40463,0
            24.73881,59.40494,0
            24.74003,59.40535,0
            24.74571,59.4073,0
            24.74687,59.4077,0
            24.7484,59.40823,0
            24.75169,59.4094,0
            24.75363,59.41009,0
            24.75391,59.4102,0
            24.75425,59.41034,0
            24.7546,59.41049,0
            24.75523,59.41081,0
            24.75561,59.41102,0
            24.7557,59.41107,0
            24.7571,59.41186,0
            24.75768,59.41227,0
            24.75837,59.4128,0
            24.75837,59.41281,0
            24.75876,59.41308,0
            24.75941,59.41369,0
            24.76018,59.41439,0
            24.76041,59.41458,0
            24.76105,59.41506,0
            24.76194,59.4157,0
            24.76271,59.41621,0
            24.76355,59.41672,0
            24.76432,59.41718,0
            24.76462,59.41737,0
            24.76533,59.41781,0
            24.76597,59.41825,0
            24.76652,59.41871,0
            24.76732,59.41939,0
            24.76764,59.4197,0
            24.76785,59.41989,0
            24.76797,59.41999,0
            24.76818,59.42017,0
            24.7683,59.42026,0
            24.76842,59.42035,0
            24.76853,59.42043,0
            24.76865,59.42051,0
            24.76877,59.42059,0
            24.76884,59.42063,0
            24.76893,59.42068,0
            24.76901,59.42073,0
            24.7691,59.42078,0
            24.7692,59.42084,0
            24.76931,59.42089,0
            24.76949,59.42099,0
            24.76957,59.42102,0
            24.76966,59.42106,0
            24.76982,59.42114,0
            24.76996,59.42119,0
            24.77011,59.42126,0
            24.77019,59.42129,0
            24.77029,59.42133,0
            24.77036,59.42136,0
            24.77045,59.42139,0
            24.77053,59.42141,0
            24.77072,59.42148,0
            24.77089,59.42154,0
            24.77095,59.42156,0
            24.77115,59.42162,0
            24.77127,59.42166,0
            24.77141,59.4217,0
            24.77168,59.42177,0
            24.77207,59.42187,0
            24.77289,59.42208,0
            24.77335,59.42222,0
            24.77357,59.42229,0
            24.77389,59.42239,0
            24.77405,59.42244,0
            24.77423,59.4225,0
            24.77434,59.42253,0
            24.77444,59.42257,0
            24.77465,59.42263,0
            24.77486,59.42269,0
            24.77497,59.42272,0
            24.77507,59.42275,0
            24.7752,59.42278,0
            24.77534,59.42282,0
            24.77558,59.42288,0
            24.77611,59.423,0
            24.77632,59.42304,0
            24.77648,59.42308,0
            24.77657,59.4231,0
            24.7767,59.42312,0
            24.77687,59.42315,0
            24.77702,59.42318,0
            24.77717,59.42321,0
            24.7774,59.42325,0
            24.77752,59.42326,0
            24.77765,59.42329,0
            24.77786,59.42332,0
            24.77798,59.42334,0
            24.77809,59.42335,0
            24.77828,59.42338,0
            24.7785,59.42341,0
            24.77867,59.42343,0
            24.77878,59.42344,0
            24.77891,59.42346,0
            24.77909,59.42347,0
            24.77922,59.42349,0
            24.77933,59.4235,0
            24.77955,59.42352,0
            24.77979,59.42354,0
            24.77989,59.42354,0
            24.78013,59.42356,0
            24.78034,59.42357,0
            24.78043,59.42357,0
            24.78054,59.42358,0
            24.78069,59.42358,0
            24.78086,59.42359,0
            24.78099,59.42359,0
            24.78114,59.4236,0
            24.78138,59.4236,0
            24.78168,59.42361,0
            24.78197,59.42362,0
            24.78214,59.42358,0
            24.78215,59.42358,0
            24.78259,59.42358,0
            24.78305,59.42359,0
            24.78334,59.4236,0
            24.78358,59.42361,0
            24.78395,59.42361,0
            24.78425,59.42362,0
            24.78453,59.42362,0
            24.7846,59.42363,0
            24.78465,59.42363,0
            24.78471,59.42363,0
            24.78476,59.42364,0
            24.7848,59.42364,0
            24.78484,59.42364,0
            24.78488,59.42365,0
            24.78492,59.42365,0
            24.78497,59.42366,0
            24.78501,59.42366,0
            24.78507,59.42367,0
            24.7851,59.42368,0
            24.78513,59.42369,0
            24.78515,59.42369,0
            24.78521,59.42371,0
            24.78528,59.42372,0
            24.78534,59.42374,0
            24.7854,59.42376,0
            24.78544,59.42378,0
            24.78548,59.4238,0
            24.78552,59.42382,0
            24.78556,59.42384,0
            24.78558,59.42386,0
            24.78568,59.42394,0
            24.78576,59.42406,0
            24.78583,59.42416,0
            24.7853,59.42443,0
            24.78508,59.42454,0
            24.78489,59.42462,0
            24.78452,59.42476,0
            24.78443,59.4248,0
            24.7842,59.42488,0
            24.78407,59.42493,0
            24.7839,59.425,0
            24.78381,59.42504,0
            24.78361,59.42512,0
            24.78333,59.42523,0
            24.78321,59.42527,0
            24.78285,59.42542,0
            24.78272,59.42548,0
            24.78255,59.42555,0
            24.78234,59.42563,0
            24.78194,59.42575,0
            24.78154,59.4259,0
            24.78142,59.42594,0
            24.781,59.42613,0
            24.7807,59.42624,0
            24.7803,59.42645,0
            24.78017,59.42653,0
            24.77967,59.42678,0
            24.77921,59.42706,0
            24.77917,59.42708,0
            24.77847,59.42744,0
            24.77825,59.42755,0
            24.77835,59.42761,0
            24.77841,59.42763,0
            24.77847,59.42765,0
            24.7787,59.4278,0
            24.77911,59.42806,0
            24.77924,59.42814,0
            24.77983,59.42852,0
            24.78003,59.42864,0
            24.7801,59.42868,0
            24.78019,59.42874,0
            24.7801,59.42879,0
            24.78006,59.42882,0
            24.78002,59.42886,0
            24.78,59.42888,0
            24.77998,59.4289,0
            24.77985,59.42912,0
            24.77981,59.4292,0
            24.77979,59.42923,0
            24.77975,59.42928,0
            24.77971,59.42947,0
            24.77967,59.42962,0
            24.77967,59.42966,0
            24.77961,59.42985,0
            24.77954,59.43005,0
            24.77945,59.43021,0
            24.77962,59.43022,0
            24.77977,59.43024,0
            24.77989,59.43026,0
            24.78005,59.43029,0
            24.7803,59.43034,0
            24.78077,59.43045,0
            24.78106,59.43053,0
            24.78126,59.43059,0
            24.78159,59.4307,0
            24.78187,59.43081,0
            24.7826,59.43107,0
            24.78385,59.43153,0
            24.78397,59.43157,0
            24.78399,59.43158,0
            24.78408,59.43161,0
            24.78428,59.43168,0
            24.78451,59.43175,0
            24.78463,59.43179,0
            24.78479,59.43183,0
            24.78508,59.4319,0
            24.78534,59.43195,0
            24.78571,59.43201,0
            24.78591,59.43206,0
            24.78608,59.43211,0
            24.7863,59.43217,0
            24.78658,59.43227,0
            24.78671,59.43231,0
            24.78706,59.43244,0
            24.78753,59.43261,0
            24.78774,59.43269,0
            24.78853,59.43299,0
            24.78912,59.43321,0
            24.79087,59.43383,0
            24.79126,59.43397,0
            24.79232,59.43432,0
            24.79268,59.43444,0
            24.79299,59.43452,0
            24.79326,59.43458,0
            24.79348,59.43464,0
            24.79372,59.43469,0
            24.79387,59.43472,0
            24.79404,59.43474,0
            24.79425,59.43478,0
            24.79449,59.43481,0
            24.79479,59.43484,0
            24.79501,59.43487,0
            24.79527,59.43489,0
            24.79548,59.43491,0
            24.79585,59.43493,0
            24.7962,59.43495,0
            24.79654,59.43496,0
            24.79719,59.43496,0
            24.79728,59.43496,0
            24.79782,59.43493,0
            24.79842,59.43489,0
            24.79877,59.43487,0
            24.799,59.43485,0
            24.79923,59.43483,0
            24.79989,59.43478,0
            24.80053,59.43474,0
            24.80096,59.43471,0
            24.80113,59.4347,0
            24.80115,59.4347,0
            24.80157,59.43469,0
            24.80192,59.43469,0
            24.80219,59.4347,0
            24.80245,59.43471,0
            24.80284,59.43472,0
            24.80289,59.43472,0
            24.80314,59.43473,0
            24.80364,59.43477,0
            24.80402,59.43481,0
            24.80438,59.43485,0
            24.80439,59.43485,0
            24.80476,59.43491,0
            24.80535,59.435,0
            24.80634,59.43523,0
            24.8067,59.43532,0
            24.80753,59.43557,0
            24.80819,59.43575,0
            24.81067,59.43646,0
            24.81245,59.43694,0
            24.8138,59.43732,0
            24.81455,59.43753,0
            24.81612,59.43798,0
            24.81765,59.43841,0
            24.81808,59.43853,0
            24.81859,59.43866,0
            24.81919,59.43881,0
            24.81965,59.43891,0
            24.82015,59.439,0
            24.82057,59.43906,0
            24.82087,59.43909,0
            24.82136,59.43914,0
            24.82177,59.43916,0
            24.8222,59.43918,0
            24.82309,59.43921,0
            24.82403,59.43925,0
            24.82514,59.4393,0
            24.82628,59.43935,0
            24.82673,59.43937,0
            24.82754,59.4394,0
            24.8277,59.43941,0
            24.82809,59.43942,0
            24.82863,59.43944,0
            24.82911,59.43947,0
            24.82958,59.43949,0
            24.82999,59.4395,0
            24.83044,59.43952,0
            24.83293,59.43963,0
            24.83402,59.43967,0
            24.83571,59.43975,0
            24.83703,59.43979,0
            24.83776,59.43986,0
            24.8384,59.4399,0
            24.84179,59.44006,0
            24.84404,59.4401,0
            24.84425,59.44011,0
            24.84456,59.44011,0
            24.84476,59.44012,0
            24.84541,59.44015,0
            24.84669,59.44022,0
            24.84701,59.44023,0
            24.84738,59.44024,0
            24.85006,59.4403,0
            24.85104,59.44031,0
            24.85113,59.44031,0
            24.8517,59.44031,0
            24.85193,59.44032,0
            24.85297,59.44032,0
            24.85353,59.44034,0
            24.85474,59.44042,0
            24.85561,59.44052,0
            24.8565,59.44062,0
            24.85707,59.44069,0
            24.8573,59.44072,0
            24.85766,59.44077,0
            24.85805,59.44082,0
            24.86002,59.44113,0
            24.86122,59.44131,0
            24.86243,59.4415,0
            24.86342,59.44154,0
            24.86368,59.44156,0
            24.8647,59.44166,0
            24.86505,59.44171,0
            24.86619,59.44187,0
            24.8667,59.44193,0
            24.86687,59.44195,0
            24.86714,59.44199,0
            24.86711,59.44203,0
            24.86709,59.44207,0
            24.86703,59.44214,0
            24.86699,59.44219,0
            24.86699,59.4422,0
            24.86696,59.44224,0
            24.86692,59.44229,0
            24.86682,59.44241,0
            24.86675,59.44251,0
            24.86668,59.4426,0
            24.86661,59.44268,0
            24.86654,59.44277,0
            24.86643,59.44289,0
            24.86637,59.44297,0
            24.86628,59.44307,0
            24.86626,59.4431,0
            24.86615,59.44324,0
            24.86608,59.44332,0
            24.86596,59.44349,0
            24.86589,59.44357,0
            24.86542,59.44417,0
            24.86518,59.44447,0
            24.86511,59.44455,0
            24.8651,59.44457,0
            24.86494,59.44476,0
            24.8649,59.44484,0
            24.86487,59.44488,0
            24.86462,59.44522,0
            24.86449,59.44538,0
            24.86383,59.44625,0
            24.86372,59.4464,0
            24.86298,59.44736,0
            24.86283,59.44756,0
            24.86237,59.44817,0
            24.86228,59.44827,0
            24.86151,59.44926,0
            24.86139,59.44943,0
            24.86098,59.44997,0
            24.86048,59.45061,0
            24.86029,59.45085,0
            24.86026,59.45089,0
            24.86016,59.45096,0
            24.86,59.45108,0
            24.8597,59.4513,0
            24.85956,59.45139,0
            24.85944,59.45146,0
            24.85944,59.45151,0
            24.85944,59.45152,0
            24.85936,59.45157,0
            24.85932,59.45161,0
            24.85929,59.45166,0
            24.85926,59.45176,0
            24.85923,59.45182,0
            24.85925,59.45189,0
            24.85926,59.45193,0
            24.85927,59.45197,0
            24.85937,59.45238,0
            24.85949,59.45291,0
            24.85949,59.45295,0
            24.85948,59.45298,0
            24.85954,59.45326,0
            24.85959,59.45333,0
            24.85961,59.45336,0
            24.85963,59.45338,0
            24.85966,59.4534,0
            24.85977,59.45348,0
            24.8599,59.45352,0
            24.85995,59.45353,0
            24.86001,59.45355,0
            24.86023,59.4536,0
            24.86118,59.4538,0
            24.86217,59.45407,0
            24.86481,59.45472,0
            24.86489,59.45474,0
            24.86511,59.45478,0
            24.86545,59.45483,0
            24.86578,59.45487,0
            24.8662,59.4549,0
            24.86636,59.45492,0
            24.86838,59.45493,0
            24.86843,59.45492,0
            24.86848,59.45491,0
            24.86851,59.45491,0
            24.86899,59.45491,0
            24.87054,59.45495,0
            24.87087,59.45496,0
            24.87096,59.45488,0
            24.871,59.45484,0
            24.87105,59.4548,0
            24.87132,59.45468,0
            24.87152,59.4546,0
            24.87145,59.45454,0
            24.87134,59.45447,0
            24.8713,59.45446,0
            24.87125,59.45444,0
            24.87124,59.45444,0
            24.87142,59.45417,0
            24.87145,59.45412,0
            24.87145,59.45411,0
            24.87146,59.4541,0
            24.87145,59.45409,0
            24.87141,59.45407,0
            24.87138,59.45407,0
          </coordinates>
        </LineString>
      </Placemark>
      <Placemark>
        <name>Linnu tee, 13424 Tallinn, Eesti</name>
        <styleUrl>#icon-1899-DB4436-nodesc</styleUrl>
        <Point>
          <coordinates>
            24.7086967,59.4146001,0
          </coordinates>
        </Point>
      </Placemark>
      <Placemark>
        <name>Kodu</name>
        <styleUrl>#icon-1899-DB4436-nodesc</styleUrl>
        <Point>
          <coordinates>
            24.8713768,59.4540654,0
          </coordinates>
        </Point>
      </Placemark>
    </Folder>
  </Document>
</kml>
